LEO EXPRESS 1           
1 58301U 23174AX  26068.76789509  .00017303  00000+0  49741-3 0  9998
2 58301  97.5222 152.4092 0078735 115.9210 245.0174 15.32756831129655
STARLINK-34253          
1 64685U 25139X   26068.43911151  .00049852  00000+0  16815-2 0  9996
2 64685  53.1589 128.3519 0002255  38.4064 321.7097 15.30248133 40249
